[
  {
    "name": "STARLINK-37833",
    "noradId": "69332",
    "line1": "1 69332U 26122D   26171.41668980 -.02176943  00000+0 -24462-1 0  9997",
    "line2": "2 69332  97.2853 201.0265 0001568  80.0623  19.6282 15.66096045  3827"
  },
  {
    "name": "STARLINK-37818",
    "noradId": "69333",
    "line1": "1 69333U 26122E   26171.41668980 -.02434050  00000+0 -28468-1 0  9994",
    "line2": "2 69333  97.2852 201.0188 0001516  69.7772   3.1943 15.64913219  3879"
  },
  {
    "name": "STARLINK-37868",
    "noradId": "69334",
    "line1": "1 69334U 26122F   26171.41668980 -.01032320  00000+0 -99570-2 0  9991",
    "line2": "2 69334  97.2852 201.0510 0001690  76.0577  75.5298 15.69021672  3870"
  },
  {
    "name": "STARLINK-37877",
    "noradId": "69335",
    "line1": "1 69335U 26122G   26171.41668980 -.02387756  00000+0 -36884-1 0  9997",
    "line2": "2 69335  97.2855 200.9861 0001429  92.1374 262.1605 15.57675805  3871"
  },
  {
    "name": "STARLINK-37791",
    "noradId": "69336",
    "line1": "1 69336U 26122H   26171.41668980 -.02492620  00000+0 -29283-1 0  9990",
    "line2": "2 69336  97.2850 201.0380 0001651  67.4380  56.8510 15.64887257  3871"
  },
  {
    "name": "STARLINK-37765",
    "noradId": "69337",
    "line1": "1 69337U 26122J   26171.41668980 -.02521305  00000+0 -18469-1 0  9998",
    "line2": "2 69337  97.2845 201.0795 0001687 100.8773 120.2652 15.76756521  3924"
  },
  {
    "name": "STARLINK-37788",
    "noradId": "69338",
    "line1": "1 69338U 26122K   26171.41668980 -.00709381  00000+0 -11892-1 0  9992",
    "line2": "2 69338  97.2851 200.9807 0001509  76.9556 275.0694 15.54249410  3878"
  },
  {
    "name": "STARLINK-37743",
    "noradId": "69339",
    "line1": "1 69339U 26122L   26171.41668980 -.02462608  00000+0 -30694-1 0  9994",
    "line2": "2 69339  97.2851 201.0345 0001436  79.0323  31.6118 15.63355524  3874"
  },
  {
    "name": "STARLINK-37780",
    "noradId": "69340",
    "line1": "1 69340U 26122M   26171.41668980 -.02550532  00000+0 -25619-1 0  9991",
    "line2": "2 69340  97.2853 201.0545 0001615  96.2915  66.5287 15.68823132  3927"
  },
  {
    "name": "STARLINK-37781",
    "noradId": "69341",
    "line1": "1 69341U 26122N   26171.41668980 -.02110525  00000+0 -33032-1 0  9994",
    "line2": "2 69341  97.2854 200.9796 0001381  89.0681 251.1529 15.56891279  3874"
  },
  {
    "name": "STARLINK-37782",
    "noradId": "69342",
    "line1": "1 69342U 26122P   26171.41668980 -.02526042  00000+0 -22519-1 0  9998",
    "line2": "2 69342  97.2853 201.0876 0001584  88.2602 151.9802 15.71637477  3870"
  },
  {
    "name": "STARLINK-37776",
    "noradId": "69343",
    "line1": "1 69343U 26122Q   26171.41668980 -.01641948  00000+0 -15422-1 0  9996",
    "line2": "2 69343  97.2851 201.0852 0001329  84.8897 150.1591 15.70056429  3875"
  },
  {
    "name": "STARLINK-37786",
    "noradId": "69344",
    "line1": "1 69344U 26122R   26171.41668980 -.02405463  00000+0 -32116-1 0  9997",
    "line2": "2 69344  97.2857 201.0516 0001602  82.3399  68.0227 15.61511370  3877"
  },
  {
    "name": "STARLINK-37785",
    "noradId": "69345",
    "line1": "1 69345U 26122S   26171.41668980 -.02468375  00000+0 -23060-1 0  9997",
    "line2": "2 69345  97.2854 201.0887 0001463  79.6901 163.7074 15.70449892  3871"
  },
  {
    "name": "STARLINK-37773",
    "noradId": "69346",
    "line1": "1 69346U 26122T   26171.41668980 -.01251777  00000+0 -14915-1 0  9992",
    "line2": "2 69346  97.2850 201.0671 0001153 104.0716  89.6837 15.63879412  3928"
  },
  {
    "name": "STARLINK-37744",
    "noradId": "69347",
    "line1": "1 69347U 26122U   26171.41668980 -.03058179  00000+0 -57546-1 0  9993",
    "line2": "2 69347  97.2847 200.9990 0001620  38.4525 341.8849 15.52698367  3870"
  },
  {
    "name": "STARLINK-37775",
    "noradId": "69348",
    "line1": "1 69348U 26122V   26171.41668980 -.01816003  00000+0 -21021-1 0  9999",
    "line2": "2 69348  97.2850 201.0701 0001555  96.8463 103.5473 15.64743682  3873"
  },
  {
    "name": "STARLINK-37777",
    "noradId": "69349",
    "line1": "1 69349U 26122W   26171.41668980 -.02471445  00000+0 -28173-1 0  9993",
    "line2": "2 69349  97.2850 201.0711 0001598  97.7579 104.5858 15.65607310  3876"
  },
  {
    "name": "STARLINK-37779",
    "noradId": "69350",
    "line1": "1 69350U 26122X   26171.41668980 -.02109075  00000+0 -21683-1 0  9991",
    "line2": "2 69350  97.2852 201.0860 0001492  83.3115 153.2847 15.68161702  3877"
  },
  {
    "name": "STARLINK-37549",
    "noradId": "69351",
    "line1": "1 69351U 26122Y   26171.41668980 -.02387283  00000+0 -35550-1 0  9999",
    "line2": "2 69351  97.2850 201.0353 0001050  85.8037  22.1426 15.58647500  3874"
  },
  {
    "name": "STARLINK-37778",
    "noradId": "69352",
    "line1": "1 69352U 26122Z   26171.41668980 -.02412343  00000+0 -34101-1 0  9997",
    "line2": "2 69352  97.2851 201.0562 0001600  73.7953  82.5365 15.60043665  3879"
  },
  {
    "name": "STARLINK-37651",
    "noradId": "69353",
    "line1": "1 69353U 26123A   26171.39630483  .00158207  00000+0  78923-3 0  9997",
    "line2": "2 69353  53.1574 225.7236 0001115  92.7095 267.4055 15.80907735  2545"
  },
  {
    "name": "STARLINK-37652",
    "noradId": "69354",
    "line1": "1 69354U 26123B   26171.39744396  .00252835  00000+0  12426-2 0  9994",
    "line2": "2 69354  53.1574 225.7322 0000889  77.2158 282.8964 15.80955580  2548"
  },
  {
    "name": "STARLINK-37593",
    "noradId": "69355",
    "line1": "1 69355U 26123C   26171.45979612  .00236504  00000+0  11655-2 0  9991",
    "line2": "2 69355  53.1571 225.4089 0001085  61.7408 298.3724 15.80942235  2558"
  },
  {
    "name": "STARLINK-37597",
    "noradId": "69356",
    "line1": "1 69356U 26123D   26171.39494676  .00152452  00000+0  76114-3 0  9998",
    "line2": "2 69356  53.1575 225.7152 0001053  74.0598 286.0541 15.80908079  2547"
  },
  {
    "name": "STARLINK-37598",
    "noradId": "69357",
    "line1": "1 69357U 26123E   26171.45606977  .00168503  00000+0  83917-3 0  9998",
    "line2": "2 69357  53.1573 225.3831 0001325  51.0098 309.1043 15.80912575  2559"
  },
  {
    "name": "STARLINK-37602",
    "noradId": "69358",
    "line1": "1 69358U 26123F   26171.41009323  .00141886  00000+0  91312-3 0  9990",
    "line2": "2 69358  53.1589 225.8158 0001251  89.2851 270.8312 15.75268710  2543"
  },
  {
    "name": "STARLINK-37600",
    "noradId": "69359",
    "line1": "1 69359U 26123G   26171.40587772  .00131221  00000+0  84610-3 0  9994",
    "line2": "2 69359  53.1587 225.7884 0001171  79.2558 280.8594 15.75262381  2542"
  },
  {
    "name": "STARLINK-37599",
    "noradId": "69360",
    "line1": "1 69360U 26123H   26171.44569206  .00156100  00000+0  77836-3 0  9997",
    "line2": "2 69360  53.1568 225.3136 0001180  94.7438 265.3719 15.80924184  2558"
  },
  {
    "name": "STARLINK-37039",
    "noradId": "69361",
    "line1": "1 69361U 26123J   26171.38740109  .00169656  00000+0  84459-3 0  9993",
    "line2": "2 69361  53.1573 225.6630 0000812  74.5076 285.6036 15.80917291  2549"
  }
]