OBJECT_NAME,OBJECT_ID,EPOCH,MEAN_MOTION,ECCENTRICITY,INCLINATION,RA_OF_ASC_NODE,ARG_OF_PERICENTER,MEAN_ANOMALY,EPHEMERIS_TYPE,CLASSIFICATION_TYPE,NORAD_CAT_ID,ELEMENT_SET_NO,REV_AT_EPOCH,BSTAR,MEAN_MOTION_DOT,MEAN_MOTION_DDOT
STARLINK-37833,2026-122D,2026-06-20T10:00:01.998720,15.66096045,.0001568,97.2853,201.0265,80.0623,19.6282,0,U,69332,999,382,-.24462E-1,-.2176943E-1,0
STARLINK-37818,2026-122E,2026-06-20T10:00:01.998720,15.64913219,.0001516,97.2852,201.0188,69.7772,3.1943,0,U,69333,999,387,-.28468E-1,-.243405E-1,0
STARLINK-37868,2026-122F,2026-06-20T10:00:01.998720,15.69021672,.000169,97.2852,201.0510,76.0577,75.5298,0,U,69334,999,387,-.9957E-2,-.103232E-1,0
STARLINK-37877,2026-122G,2026-06-20T10:00:01.998720,15.57675805,.0001429,97.2855,200.9861,92.1374,262.1605,0,U,69335,999,387,-.36884E-1,-.2387756E-1,0
STARLINK-37791,2026-122H,2026-06-20T10:00:01.998720,15.64887257,.0001651,97.2850,201.0380,67.4380,56.8510,0,U,69336,999,387,-.29283E-1,-.249262E-1,0
STARLINK-37765,2026-122J,2026-06-20T10:00:01.998720,15.76756521,.0001687,97.2845,201.0795,100.8773,120.2652,0,U,69337,999,392,-.18469E-1,-.2521305E-1,0
STARLINK-37788,2026-122K,2026-06-20T10:00:01.998720,15.54249410,.0001509,97.2851,200.9807,76.9556,275.0694,0,U,69338,999,387,-.11892E-1,-.709381E-2,0
STARLINK-37743,2026-122L,2026-06-20T10:00:01.998720,15.63355524,.0001436,97.2851,201.0345,79.0323,31.6118,0,U,69339,999,387,-.30694E-1,-.2462608E-1,0
STARLINK-37780,2026-122M,2026-06-20T10:00:01.998720,15.68823132,.0001615,97.2853,201.0545,96.2915,66.5287,0,U,69340,999,392,-.25619E-1,-.2550532E-1,0
STARLINK-37781,2026-122N,2026-06-20T10:00:01.998720,15.56891279,.0001381,97.2854,200.9796,89.0681,251.1529,0,U,69341,999,387,-.33032E-1,-.2110525E-1,0
STARLINK-37782,2026-122P,2026-06-20T10:00:01.998720,15.71637477,.0001584,97.2853,201.0876,88.2602,151.9802,0,U,69342,999,387,-.22519E-1,-.2526042E-1,0
STARLINK-37776,2026-122Q,2026-06-20T10:00:01.998720,15.70056429,.0001329,97.2851,201.0852,84.8897,150.1591,0,U,69343,999,387,-.15422E-1,-.1641948E-1,0
STARLINK-37786,2026-122R,2026-06-20T10:00:01.998720,15.61511370,.0001602,97.2857,201.0516,82.3399,68.0227,0,U,69344,999,387,-.32116E-1,-.2405463E-1,0
STARLINK-37785,2026-122S,2026-06-20T10:00:01.998720,15.70449892,.0001463,97.2854,201.0887,79.6901,163.7074,0,U,69345,999,387,-.2306E-1,-.2468375E-1,0
STARLINK-37773,2026-122T,2026-06-20T10:00:01.998720,15.63879412,.0001153,97.2850,201.0671,104.0716,89.6837,0,U,69346,999,392,-.14915E-1,-.1251777E-1,0
STARLINK-37744,2026-122U,2026-06-20T10:00:01.998720,15.52698367,.000162,97.2847,200.9990,38.4525,341.8849,0,U,69347,999,387,-.57546E-1,-.3058179E-1,0
STARLINK-37775,2026-122V,2026-06-20T10:00:01.998720,15.64743682,.0001555,97.2850,201.0701,96.8463,103.5473,0,U,69348,999,387,-.21021E-1,-.1816003E-1,0
STARLINK-37777,2026-122W,2026-06-20T10:00:01.998720,15.65607310,.0001598,97.2850,201.0711,97.7579,104.5858,0,U,69349,999,387,-.28173E-1,-.2471445E-1,0
STARLINK-37779,2026-122X,2026-06-20T10:00:01.998720,15.68161702,.0001492,97.2852,201.0860,83.3115,153.2847,0,U,69350,999,387,-.21683E-1,-.2109075E-1,0
STARLINK-37549,2026-122Y,2026-06-20T10:00:01.998720,15.58647500,.000105,97.2850,201.0353,85.8037,22.1426,0,U,69351,999,387,-.3555E-1,-.2387283E-1,0
STARLINK-37778,2026-122Z,2026-06-20T10:00:01.998720,15.60043665,.00016,97.2851,201.0562,73.7953,82.5365,0,U,69352,999,387,-.34101E-1,-.2412343E-1,0
STARLINK-37651,2026-123A,2026-06-20T09:30:40.737312,15.80907735,.0001115,53.1574,225.7236,92.7095,267.4055,0,U,69353,999,254,.78923E-3,.158207E-2,0
STARLINK-37652,2026-123B,2026-06-20T09:32:19.158144,15.80955580,.0000889,53.1574,225.7322,77.2158,282.8964,0,U,69354,999,254,.12426E-2,.252835E-2,0
STARLINK-37593,2026-123C,2026-06-20T11:02:06.384768,15.80942235,.0001085,53.1571,225.4089,61.7408,298.3724,0,U,69355,999,255,.11655E-2,.236504E-2,0
STARLINK-37597,2026-123D,2026-06-20T09:28:43.400064,15.80908079,.0001053,53.1575,225.7152,74.0598,286.0541,0,U,69356,999,254,.76114E-3,.152452E-2,0
STARLINK-37598,2026-123E,2026-06-20T10:56:44.428128,15.80912575,.0001325,53.1573,225.3831,51.0098,309.1043,0,U,69357,999,255,.83917E-3,.168503E-2,0
STARLINK-37602,2026-123F,2026-06-20T09:50:32.055072,15.75268710,.0001251,53.1589,225.8158,89.2851,270.8312,0,U,69358,999,254,.91312E-3,.141886E-2,0
STARLINK-37600,2026-123G,2026-06-20T09:44:27.835008,15.75262381,.0001171,53.1587,225.7884,79.2558,280.8594,0,U,69359,999,254,.8461E-3,.131221E-2,0
STARLINK-37599,2026-123H,2026-06-20T10:41:47.793984,15.80924184,.000118,53.1568,225.3136,94.7438,265.3719,0,U,69360,999,255,.77836E-3,.1561E-2,0
STARLINK-37039,2026-123J,2026-06-20T09:17:51.454176,15.80917291,.0000812,53.1573,225.6630,74.5076,285.6036,0,U,69361,999,254,.84459E-3,.169656E-2,0
